{
  "type": "FeatureCollection",
  "features": [
    {
      "type": "Feature",
      "properties": {
        "norad_id": 40730,
        "name": "GPS BIIF-10 (PRN 08)",
        "group": "gps-ops",
        "lat": 33.441222996138215,
        "lon": -57.0636609718978,
        "alt_km": 19893.155102570916,
        "timestamp": "2025-12-20T18:51:31.973270+00:00",
        "meta_object_name": "GPS BIIF-10 (PRN 08)",
        "meta_object_id": "2015-033A",
        "meta_epoch": "2025-12-20T05:30:00.269856",
        "meta_mean_motion": 2.0056532,
        "meta_eccentricity": 0.01114012,
        "meta_inclination": 54.1241,
        "meta_ra_of_asc_node": 274.4647,
        "meta_arg_of_pericenter": 26.9904,
        "meta_mean_anomaly": 333.6219,
        "meta_ephemeris_type": 0,
        "meta_classification_type": "U",
        "meta_norad_cat_id": 40730,
        "meta_element_set_no": 999,
        "meta_rev_at_epoch": 7640,
        "meta_bstar": 0,
        "meta_mean_motion_dot": -1.9e-07,
        "meta_mean_motion_ddot": 0,
        "tle_line1": "1 40730U 15033A   25354.22916979 -.00000019  00000+0  00000+0 0  9999",
        "tle_line2": "2 40730  54.1241 274.4647 0111401  26.9904 333.6219  2.00565320 76402"
      },
      "geometry": {
        "type": "Point",
        "coordinates": [
          -57.0636609718978,
          33.441222996138215
        ]
      }
    },
    {
      "type": "Feature",
      "properties": {
        "norad_id": 41019,
        "name": "GPS BIIF-11 (PRN 10)",
        "group": "gps-ops",
        "lat": -0.8058338488097716,
        "lon": 37.18522791259732,
        "alt_km": 20365.76079406929,
        "timestamp": "2025-12-20T18:51:31.973280+00:00",
        "meta_object_name": "GPS BIIF-11 (PRN 10)",
        "meta_object_id": "2015-062A",
        "meta_epoch": "2025-12-20T06:55:31.863936",
        "meta_mean_motion": 2.00567218,
        "meta_eccentricity": 0.01110192,
        "meta_inclination": 56.8376,
        "meta_ra_of_asc_node": 37.7103,
        "meta_arg_of_pericenter": 230.1421,
        "meta_mean_anomaly": 128.9419,
        "meta_ephemeris_type": 0,
        "meta_classification_type": "U",
        "meta_norad_cat_id": 41019,
        "meta_element_set_no": 999,
        "meta_rev_at_epoch": 7424,
        "meta_bstar": 0,
        "meta_mean_motion_dot": -5.7e-07,
        "meta_mean_motion_ddot": 0,
        "tle_line1": "1 41019U 15062A   25354.28856324 -.00000057  00000+0  00000+0 0  9997",
        "tle_line2": "2 41019  56.8376  37.7103 0111019 230.1421 128.9419  2.00567218 74241"
      },
      "geometry": {
        "type": "Point",
        "coordinates": [
          37.18522791259732,
          -0.8058338488097716
        ]
      }
    },
    {
      "type": "Feature",
      "properties": {
        "norad_id": 41328,
        "name": "GPS BIIF-12 (PRN 32)",
        "group": "gps-ops",
        "lat": -45.931341077974146,
        "lon": 51.15745802119902,
        "alt_km": 20047.403059725006,
        "timestamp": "2025-12-20T18:51:31.973292+00:00",
        "meta_object_name": "GPS BIIF-12 (PRN 32)",
        "meta_object_id": "2016-007A",
        "meta_epoch": "2025-12-20T08:54:35.720928",
        "meta_mean_motion": 2.00560411,
        "meta_eccentricity": 0.00925423,
        "meta_inclination": 55.4103,
        "meta_ra_of_asc_node": 96.5541,
        "meta_arg_of_pericenter": 243.7653,
        "meta_mean_anomaly": 115.2741,
        "meta_ephemeris_type": 0,
        "meta_classification_type": "U",
        "meta_norad_cat_id": 41328,
        "meta_element_set_no": 999,
        "meta_rev_at_epoch": 7225,
        "meta_bstar": 0,
        "meta_mean_motion_dot": -1.8e-07,
        "meta_mean_motion_ddot": 0,
        "tle_line1": "1 41328U 16007A   25354.37124677 -.00000018  00000+0  00000+0 0  9996",
        "tle_line2": "2 41328  55.4103  96.5541 0092542 243.7653 115.2741  2.00560411 72256"
      },
      "geometry": {
        "type": "Point",
        "coordinates": [
          51.15745802119902,
          -45.931341077974146
        ]
      }
    },
    {
      "type": "Feature",
      "properties": {
        "norad_id": 43873,
        "name": "GPS BIII-1  (PRN 04)",
        "group": "gps-ops",
        "lat": -10.556427323250798,
        "lon": -73.43786250759743,
        "alt_km": 20084.87109866499,
        "timestamp": "2025-12-20T18:51:31.973303+00:00",
        "meta_object_name": "GPS BIII-1  (PRN 04)",
        "meta_object_id": "2018-109A",
        "meta_epoch": "2025-12-20T14:49:36.232608",
        "meta_mean_motion": 2.00553966,
        "meta_eccentricity": 0.00375746,
        "meta_inclination": 55.571,
        "meta_ra_of_asc_node": 99.2363,
        "meta_arg_of_pericenter": 195.36,
        "meta_mean_anomaly": 236.122,
        "meta_ephemeris_type": 0,
        "meta_classification_type": "U",
        "meta_norad_cat_id": 43873,
        "meta_element_set_no": 999,
        "meta_rev_at_epoch": 5149,
        "meta_bstar": 0,
        "meta_mean_motion_dot": -1.2e-07,
        "meta_mean_motion_ddot": 0,
        "tle_line1": "1 43873U 18109A   25354.61778047 -.00000012  00000+0  00000+0 0  9995",
        "tle_line2": "2 43873  55.5710  99.2363 0037574 195.3600 236.1220  2.00553966 51493"
      },
      "geometry": {
        "type": "Point",
        "coordinates": [
          -73.43786250759743,
          -10.556427323250798
        ]
      }
    },
    {
      "type": "Feature",
      "properties": {
        "norad_id": 44506,
        "name": "GPS BIII-2  (PRN 18)",
        "group": "gps-ops",
        "lat": 55.7017595537967,
        "lon": 67.32024205176153,
        "alt_km": 20224.692848951785,
        "timestamp": "2025-12-20T18:51:31.973314+00:00",
        "meta_object_name": "GPS BIII-2  (PRN 18)",
        "meta_object_id": "2019-056A",
        "meta_epoch": "2025-12-20T05:10:31.696032",
        "meta_mean_motion": 2.00566646,
        "meta_eccentricity": 0.00577304,
        "meta_inclination": 55.7188,
        "meta_ra_of_asc_node": 338.2562,
        "meta_arg_of_pericenter": 198.5398,
        "meta_mean_anomaly": 199.8804,
        "meta_ephemeris_type": 0,
        "meta_classification_type": "U",
        "meta_norad_cat_id": 44506,
        "meta_element_set_no": 999,
        "meta_rev_at_epoch": 4648,
        "meta_bstar": 0,
        "meta_mean_motion_dot": -7.7e-07,
        "meta_mean_motion_ddot": 0,
        "tle_line1": "1 44506U 19056A   25354.21564463 -.00000077  00000+0  00000+0 0  9993",
        "tle_line2": "2 44506  55.7188 338.2562 0057730 198.5398 199.8804  2.00566646 46485"
      },
      "geometry": {
        "type": "Point",
        "coordinates": [
          67.32024205176153,
          55.7017595537967
        ]
      }
    },
    {
      "type": "Feature",
      "properties": {
        "norad_id": 45854,
        "name": "GPS BIII-3  (PRN 23)",
        "group": "gps-ops",
        "lat": 27.688272225871497,
        "lon": 56.17601870730441,
        "alt_km": 20337.63723147621,
        "timestamp": "2025-12-20T18:51:31.973326+00:00",
        "meta_object_name": "GPS BIII-3  (PRN 23)",
        "meta_object_id": "2020-041A",
        "meta_epoch": "2025-12-19T05:46:39.794304",
        "meta_mean_motion": 2.00561972,
        "meta_eccentricity": 0.006061,
        "meta_inclination": 56.5512,
        "meta_ra_of_asc_node": 35.9326,
        "meta_arg_of_pericenter": 203.6529,
        "meta_mean_anomaly": 154.7875,
        "meta_ephemeris_type": 0,
        "meta_classification_type": "U",
        "meta_norad_cat_id": 45854,
        "meta_element_set_no": 999,
        "meta_rev_at_epoch": 4042,
        "meta_bstar": 0,
        "meta_mean_motion_dot": -6.4e-07,
        "meta_mean_motion_ddot": 0,
        "tle_line1": "1 45854U 20041A   25353.24073836 -.00000064  00000+0  00000+0 0  9993",
        "tle_line2": "2 45854  56.5512  35.9326 0060610 203.6529 154.7875  2.00561972 40429"
      },
      "geometry": {
        "type": "Point",
        "coordinates": [
          56.17601870730441,
          27.688272225871497
        ]
      }
    },
    {
      "type": "Feature",
      "properties": {
        "norad_id": 46826,
        "name": "GPS BIII-4  (PRN 14)",
        "group": "gps-ops",
        "lat": 4.3377485163250515,
        "lon": -138.81246977135152,
        "alt_km": 20345.223242267755,
        "timestamp": "2025-12-20T18:51:31.973372+00:00",
        "meta_object_name": "GPS BIII-4  (PRN 14)",
        "meta_object_id": "2020-078A",
        "meta_epoch": "2025-12-16T01:06:13.902336",
        "meta_mean_motion": 2.00566891,
        "meta_eccentricity": 0.0064755,
        "meta_inclination": 54.0145,
        "meta_ra_of_asc_node": 218.2068,
        "meta_arg_of_pericenter": 203.3828,
        "meta_mean_anomaly": 339.3936,
        "meta_ephemeris_type": 0,
        "meta_classification_type": "U",
        "meta_norad_cat_id": 46826,
        "meta_element_set_no": 999,
        "meta_rev_at_epoch": 3783,
        "meta_bstar": 0,
        "meta_mean_motion_dot": 6.7e-07,
        "meta_mean_motion_ddot": 0,
        "tle_line1": "1 46826U 20078A   25350.04599424  .00000067  00000+0  00000+0 0  9996",
        "tle_line2": "2 46826  54.0145 218.2068 0064755 203.3828 339.3936  2.00566891 37831"
      },
      "geometry": {
        "type": "Point",
        "coordinates": [
          -138.81246977135152,
          4.3377485163250515
        ]
      }
    }
  ]
}